{
  "type": "FeatureCollection",
  "features": [
    {
      "type": "Feature",
      "properties": {
        "norad_id": 30388,
        "name": "FENGYUN 1C DEB",
        "group": "fengyun-1c-debris",
        "lat": -5.944330929102794,
        "lon": 176.85624166552736,
        "alt_km": 838.9811937932554,
        "timestamp": "2025-12-02T19:35:50.831933+00:00",
        "meta_object_name": "FENGYUN 1C DEB",
        "meta_object_id": "1999-025ADB",
        "meta_epoch": "2025-12-02T00:26:40.896960",
        "meta_mean_motion": 14.19728091,
        "meta_eccentricity": 0.02224158,
        "meta_inclination": 98.6002,
        "meta_ra_of_asc_node": 356.9832,
        "meta_arg_of_pericenter": 93.69,
        "meta_mean_anomaly": 333.2078,
        "meta_ephemeris_type": 0,
        "meta_classification_type": "U",
        "meta_norad_cat_id": 30388,
        "meta_element_set_no": 999,
        "meta_rev_at_epoch": 97280,
        "meta_bstar": 0.00047449613,
        "meta_mean_motion_dot": 1.242e-05,
        "meta_mean_motion_ddot": 0,
        "tle_line1": "1 30388U 99025ADB 25336.01852890  .00001242  00000+0  47450-3 0  9990",
        "tle_line2": "2 30388  98.6002 356.9832 0222415  93.6900 333.2078 14.19728091972802"
      },
      "geometry": {
        "type": "Point",
        "coordinates": [
          176.85624166552736,
          -5.944330929102794
        ]
      }
    },
    {
      "type": "Feature",
      "properties": {
        "norad_id": 30389,
        "name": "FENGYUN 1C DEB",
        "group": "fengyun-1c-debris",
        "lat": 80.13481403420703,
        "lon": -5.812511869065118,
        "alt_km": 747.8085665191802,
        "timestamp": "2025-12-02T19:35:50.831944+00:00",
        "meta_object_name": "FENGYUN 1C DEB",
        "meta_object_id": "1999-025ADC",
        "meta_epoch": "2025-12-02T04:31:30.756288",
        "meta_mean_motion": 14.43780069,
        "meta_eccentricity": 0.00136401,
        "meta_inclination": 98.8394,
        "meta_ra_of_asc_node": 57.023,
        "meta_arg_of_pericenter": 249.3398,
        "meta_mean_anomaly": 174.0401,
        "meta_ephemeris_type": 0,
        "meta_classification_type": "U",
        "meta_norad_cat_id": 30389,
        "meta_element_set_no": 999,
        "meta_rev_at_epoch": 97634,
        "meta_bstar": 0.002732979,
        "meta_mean_motion_dot": 9.274e-05,
        "meta_mean_motion_ddot": 0,
        "tle_line1": "1 30389U 99025ADC 25336.18855042  .00009274  00000+0  27330-2 0  9998",
        "tle_line2": "2 30389  98.8394  57.0230 0013640 249.3398 174.0401 14.43780069976343"
      },
      "geometry": {
        "type": "Point",
        "coordinates": [
          -5.812511869065118,
          80.13481403420703
        ]
      }
    },
    {
      "type": "Feature",
      "properties": {
        "norad_id": 30390,
        "name": "FENGYUN 1C DEB",
        "group": "fengyun-1c-debris",
        "lat": 73.99481695646492,
        "lon": 27.107578712160926,
        "alt_km": 807.4218332843839,
        "timestamp": "2025-12-02T19:35:50.831955+00:00",
        "meta_object_name": "FENGYUN 1C DEB",
        "meta_object_id": "1999-025ADD",
        "meta_epoch": "2025-12-02T04:25:04.041120",
        "meta_mean_motion": 14.2956022,
        "meta_eccentricity": 0.00681712,
        "meta_inclination": 98.8236,
        "meta_ra_of_asc_node": 59.2539,
        "meta_arg_of_pericenter": 194.7014,
        "meta_mean_anomaly": 229.4216,
        "meta_ephemeris_type": 0,
        "meta_classification_type": "U",
        "meta_norad_cat_id": 30390,
        "meta_element_set_no": 999,
        "meta_rev_at_epoch": 97233,
        "meta_bstar": 0.0023041421,
        "meta_mean_motion_dot": 6.002e-05,
        "meta_mean_motion_ddot": 0,
        "tle_line1": "1 30390U 99025ADD 25336.18407455  .00006002  00000+0  23041-2 0  9992",
        "tle_line2": "2 30390  98.8236  59.2539 0068171 194.7014 229.4216 14.29560220972336"
      },
      "geometry": {
        "type": "Point",
        "coordinates": [
          27.107578712160926,
          73.99481695646492
        ]
      }
    },
    {
      "type": "Feature",
      "properties": {
        "norad_id": 30391,
        "name": "FENGYUN 1C DEB",
        "group": "fengyun-1c-debris",
        "lat": 67.0235024347688,
        "lon": -135.65872297699002,
        "alt_km": 883.0606581365919,
        "timestamp": "2025-12-02T19:35:50.831965+00:00",
        "meta_object_name": "FENGYUN 1C DEB",
        "meta_object_id": "1999-025ADE",
        "meta_epoch": "2025-12-02T02:22:14.349216",
        "meta_mean_motion": 14.16159657,
        "meta_eccentricity": 0.00710334,
        "meta_inclination": 98.7822,
        "meta_ra_of_asc_node": 22.2504,
        "meta_arg_of_pericenter": 292.752,
        "meta_mean_anomaly": 121.1924,
        "meta_ephemeris_type": 0,
        "meta_classification_type": "U",
        "meta_norad_cat_id": 30391,
        "meta_element_set_no": 999,
        "meta_rev_at_epoch": 96728,
        "meta_bstar": 0.0012888085,
        "meta_mean_motion_dot": 2.569e-05,
        "meta_mean_motion_ddot": 0,
        "tle_line1": "1 30391U 99025ADE 25336.09877719  .00002569  00000+0  12888-2 0  9998",
        "tle_line2": "2 30391  98.7822  22.2504 0071033 292.7520 121.1924 14.16159657967287"
      },
      "geometry": {
        "type": "Point",
        "coordinates": [
          -135.65872297699002,
          67.0235024347688
        ]
      }
    },
    {
      "type": "Feature",
      "properties": {
        "norad_id": 30392,
        "name": "FENGYUN 1C DEB",
        "group": "fengyun-1c-debris",
        "lat": 54.379153671535235,
        "lon": -16.795760855978454,
        "alt_km": 749.1227502209867,
        "timestamp": "2025-12-02T19:35:50.831975+00:00",
        "meta_object_name": "FENGYUN 1C DEB",
        "meta_object_id": "1999-025ADF",
        "meta_epoch": "2025-12-02T07:29:02.423904",
        "meta_mean_motion": 14.07410404,
        "meta_eccentricity": 0.018158,
        "meta_inclination": 98.7863,
        "meta_ra_of_asc_node": 355.1793,
        "meta_arg_of_pericenter": 26.2596,
        "meta_mean_anomaly": 352.2292,
        "meta_ephemeris_type": 0,
        "meta_classification_type": "U",
        "meta_norad_cat_id": 30392,
        "meta_element_set_no": 999,
        "meta_rev_at_epoch": 96524,
        "meta_bstar": 0.00076653,
        "meta_mean_motion_dot": 1.456e-05,
        "meta_mean_motion_ddot": 0,
        "tle_line1": "1 30392U 99025ADF 25336.31183361  .00001456  00000+0  76653-3 0  9992",
        "tle_line2": "2 30392  98.7863 355.1793 0181580  26.2596 352.2292 14.07410404965242"
      },
      "geometry": {
        "type": "Point",
        "coordinates": [
          -16.795760855978454,
          54.379153671535235
        ]
      }
    },
    {
      "type": "Feature",
      "properties": {
        "norad_id": 30393,
        "name": "FENGYUN 1C DEB",
        "group": "fengyun-1c-debris",
        "lat": 80.75832947273543,
        "lon": -48.22651799911895,
        "alt_km": 937.8827222505479,
        "timestamp": "2025-12-02T19:35:50.831986+00:00",
        "meta_object_name": "FENGYUN 1C DEB",
        "meta_object_id": "1999-025ADG",
        "meta_epoch": "2025-12-02T02:21:09.961344",
        "meta_mean_motion": 13.98971144,
        "meta_eccentricity": 0.00696044,
        "meta_inclination": 99.165,
        "meta_ra_of_asc_node": 33.8847,
        "meta_arg_of_pericenter": 289.3747,
        "meta_mean_anomaly": 142.4719,
        "meta_ephemeris_type": 0,
        "meta_classification_type": "U",
        "meta_norad_cat_id": 30393,
        "meta_element_set_no": 999,
        "meta_rev_at_epoch": 96181,
        "meta_bstar": 0.00025825028,
        "meta_mean_motion_dot": 3.35e-06,
        "meta_mean_motion_ddot": 0,
        "tle_line1": "1 30393U 99025ADG 25336.09803196  .00000335  00000+0  25825-3 0  9993",
        "tle_line2": "2 30393  99.1650  33.8847 0069604 289.3747 142.4719 13.98971144961818"
      },
      "geometry": {
        "type": "Point",
        "coordinates": [
          -48.22651799911895,
          80.75832947273543
        ]
      }
    },
    {
      "type": "Feature",
      "properties": {
        "norad_id": 30394,
        "name": "FENGYUN 1C DEB",
        "group": "fengyun-1c-debris",
        "lat": 6.9584086085299175,
        "lon": -173.99241786737153,
        "alt_km": 863.5523938454644,
        "timestamp": "2025-12-02T19:35:50.831997+00:00",
        "meta_object_name": "FENGYUN 1C DEB",
        "meta_object_id": "1999-025ADH",
        "meta_epoch": "2025-12-02T01:41:43.336608",
        "meta_mean_motion": 13.95771839,
        "meta_eccentricity": 0.00899122,
        "meta_inclination": 99.4357,
        "meta_ra_of_asc_node": 4.0811,
        "meta_arg_of_pericenter": 130.0972,
        "meta_mean_anomaly": 255.9466,
        "meta_ephemeris_type": 0,
        "meta_classification_type": "U",
        "meta_norad_cat_id": 30394,
        "meta_element_set_no": 999,
        "meta_rev_at_epoch": 95955,
        "meta_bstar": 0.00029208886,
        "meta_mean_motion_dot": 3.66e-06,
        "meta_mean_motion_ddot": 0,
        "tle_line1": "1 30394U 99025ADH 25336.07064047  .00000366  00000+0  29209-3 0  9990",
        "tle_line2": "2 30394  99.4357   4.0811 0089912 130.0972 255.9466 13.95771839959556"
      },
      "geometry": {
        "type": "Point",
        "coordinates": [
          -173.99241786737153,
          6.9584086085299175
        ]
      }
    }
  ]
}